OBJECT_NAME,OBJECT_ID,EPOCH,MEAN_MOTION,ECCENTRICITY,INCLINATION,RA_OF_ASC_NODE,ARG_OF_PERICENTER,MEAN_ANOMALY,EPHEMERIS_TYPE,CLASSIFICATION_TYPE,NORAD_CAT_ID,ELEMENT_SET_NO,REV_AT_EPOCH,BSTAR,MEAN_MOTION_DOT,MEAN_MOTION_DDOT
YAMAL 401,2014-082A,2026-06-26T02:42:57.812832,1.00270288,.0000873,0.0076,304.3843,170.1445,290.4003,0,U,40345,999,4200,0,-.217E-5,0
ASTRA 2G,2014-089A,2026-06-26T04:07:54.001056,1.00273028,.0004869,0.0510,21.2289,51.5596,291.6581,0,U,40364,999,4205,0,.161E-5,0
FENGYUN 2G,2014-090A,2026-06-25T18:12:17.409312,1.00269333,.0003599,5.6611,72.7168,151.3751,62.5277,0,U,40367,999,4208,0,-.296E-5,0
MUOS-3,2015-002A,2026-06-25T22:47:33.819072,1.00270957,.0052544,4.5369,43.5573,177.8085,19.1547,0,U,40374,999,4167,0,-.122E-5,0
INMARSAT 5-F2,2015-005A,2026-06-25T08:54:55.028736,1.00272845,.0000321,0.0181,10.2642,353.1584,348.8042,0,U,40384,999,4107,0,-.276E-5,0
ABS-3A,2015-010A,2026-06-26T02:16:22.861056,1.00271218,.0001701,0.0435,54.5074,356.1117,254.7083,0,U,40424,999,4146,0,0,0
EUTELSAT 115 WEST B,2015-010B,2026-06-26T02:44:38.663232,1.00274126,.0000526,0.0130,149.5092,114.5482,296.4536,0,U,40425,999,4148,0,-.14E-6,0
EXPRESS-AM7,2015-012A,2026-06-25T12:47:19.674240,1.00275830,.0003498,0.0254,357.8742,109.5393,38.1191,0,U,40505,999,4109,0,0,0
BEIDOU-3S IGSO-1S,2015-019A,2026-06-25T19:36:21.900096,1.00249619,.0039038,49.1775,295.3568,191.6631,171.6620,0,U,40549,999,4116,0,-.174E-5,0
THOR 7,2015-022A,2026-06-26T03:59:47.278752,1.00271644,.000268,0.0175,62.8267,27.6067,243.1437,0,U,40613,999,4090,0,.2E-7,0
TURKMENALEM52E/MONACOSAT,2015-023A,2026-06-25T09:25:22.111392,1.00275394,.0003078,0.0190,64.6510,26.1749,16.0949,0,U,40617,999,4093,0,.113E-5,0
DIRECTV 15,2015-026A,2026-06-25T22:22:39.416160,1.00270429,.000054,0.0190,62.4777,338.5679,105.7995,0,U,40663,999,4055,0,-.92E-6,0
SKY MEXICO-1,2015-026B,2026-06-25T12:13:31.613088,1.00268983,.0002676,0.0256,359.1063,115.2462,263.8772,0,U,40664,999,4053,0,0,0
METEOSAT-11 (MSG-4),2015-034A,2026-06-26T04:02:39.505056,1.00265880,.0002261,3.2230,71.0535,347.2688,286.0801,0,U,40732,999,730,0,.7E-6,0
STAR ONE C4,2015-034B,2026-06-25T20:49:18.168096,1.00271335,.0002187,0.0267,327.6862,99.7943,88.8558,0,U,40733,999,4010,0,-.254E-5,0
WGS F7 (USA 263),2015-036A,2026-06-24T19:38:14.746272,1.00271683,.0000455,0.0402,52.2049,132.9830,197.3076,0,U,40746,999,3994,0,0,0
INTELSAT 34 (IS-34),2015-039A,2026-06-25T08:54:47.542176,1.00270119,.0000477,0.0077,354.3653,26.9885,330.3532,0,U,40874,999,3971,0,-.275E-5,0
EUTELSAT 8 WEST B,2015-039B,2026-06-26T03:57:39.983040,1.00271625,.0003764,0.0629,5.6594,85.6586,234.3902,0,U,40875,999,3974,0,-.55E-6,0
GSAT-6,2015-041A,2026-06-26T04:23:30.005952,1.00270791,.0003135,1.9418,82.4836,5.6766,334.5578,0,U,40880,999,3968,0,-.151E-5,0
INMARSAT 5-F3,2015-042A,2026-06-25T13:41:00.843360,1.00268087,.000049,0.0188,23.8627,108.1069,166.5837,0,U,40882,999,3965,0,.6E-6,0
MUOS-4,2015-044A,2026-06-26T04:21:22.710240,1.00272326,.0057848,4.3466,42.3015,2.9111,9.4222,0,U,40887,999,3965,0,-.86E-6,0
TJS-1,2015-046A,2026-06-25T23:36:10.842048,1.00270812,.0005902,0.3462,84.9230,4.5838,333.6849,0,U,40892,999,3965,0,-.146E-5,0
EXPRESS-AM8,2015-048A,2026-06-26T03:55:55.151328,1.00271655,.0000427,0.0160,322.3830,86.0795,270.8065,0,U,40895,999,3943,0,-.1E-5,0
BEIDOU-3S IGSO-2S,2015-053A,2026-06-25T16:28:33.612960,1.00257859,.0065506,49.2068,258.6794,192.9195,164.0515,0,U,40938,999,3943,0,-.126E-5,0
SKY MUSTER 1 (NBN1A),2015-054A,2026-06-25T13:15:56.506176,1.00270060,.0002053,0.0231,349.6606,100.0271,163.2387,0,U,40940,999,3934,0,0,0
ARSAT 2,2015-054B,2026-06-26T03:34:38.794368,1.00271740,.000218,0.0125,328.8643,116.0192,162.0547,0,U,40941,999,3939,0,-.214E-5,0
MORELOS 3,2015-056A,2026-06-25T15:28:59.944800,1.00271873,.0000674,3.1937,15.2859,4.1486,13.4933,0,U,40946,999,3937,0,-.36E-6,0
APSTAR-9,2015-059A,2026-06-26T06:14:04.300800,1.00274085,.0002589,0.0330,304.7065,232.0936,333.0921,0,U,40982,999,3921,0,-.254E-5,0
TURKSAT 4B,2015-060A,2026-06-26T04:14:08.404224,1.00271991,.0002475,0.0160,32.9304,57.6660,297.1841,0,U,40984,999,3918,0,.126E-5,0
ZHONGXING-2C,2015-063A,2026-06-26T02:46:42.453696,1.00274674,.0007551,0.2973,89.4229,95.7660,234.1553,0,U,41021,999,3906,0,-.313E-5,0
GSAT-15,2015-065A,2026-06-26T01:01:14.172960,1.00271331,.0004589,0.0502,263.8085,172.2260,306.9693,0,U,41028,999,3888,0,-.247E-5,0
BADR-7 (ARABSAT-6B),2015-065B,2026-06-26T04:07:16.562208,1.00272796,.0003912,0.0377,213.5148,342.1535,166.4219,0,U,41029,999,3885,0,.156E-5,0
