YAMAL 401               
1 40345U 14082A   26177.11316913 -.00000217  00000+0  00000+0 0  9998
2 40345   0.0076 304.3843 0000873 170.1445 290.4003  1.00270288 42008
ASTRA 2G                
1 40364U 14089A   26177.17215279  .00000161  00000+0  00000+0 0  9992
2 40364   0.0510  21.2289 0004869  51.5596 291.6581  1.00273028 42053
FENGYUN 2G              
1 40367U 14090A   26176.75853483 -.00000296  00000+0  00000+0 0  9995
2 40367   5.6611  72.7168 0003599 151.3751  62.5277  1.00269333 42081
MUOS-3                  
1 40374U 15002A   26176.94969698 -.00000122  00000+0  00000+0 0  9992
2 40374   4.5369  43.5573 0052544 177.8085  19.1547  1.00270957 41676
INMARSAT 5-F2           
1 40384U 15005A   26176.37147024 -.00000276  00000+0  00000+0 0  9994
2 40384   0.0181  10.2642 0000321 353.1584 348.8042  1.00272845 41071
ABS-3A                  
1 40424U 15010A   26177.09470904  .00000000  00000+0  00000+0 0  9995
2 40424   0.0435  54.5074 0001701 356.1117 254.7083  1.00271218 41462
EUTELSAT 115 WEST B     
1 40425U 15010B   26177.11433638 -.00000014  00000+0  00000+0 0  9998
2 40425   0.0130 149.5092 0000526 114.5482 296.4536  1.00274126 41484
EXPRESS-AM7             
1 40505U 15012A   26176.53286660  .00000000  00000+0  00000+0 0  9999
2 40505   0.0254 357.8742 0003498 109.5393  38.1191  1.00275830 41090
BEIDOU-3S IGSO-1S       
1 40549U 15019A   26176.81692014 -.00000174  00000+0  00000+0 0  9992
2 40549  49.1775 295.3568 0039038 191.6631 171.6620  1.00249619 41162
THOR 7                  
1 40613U 15022A   26177.16651943  .00000002  00000+0  00000+0 0  9992
2 40613   0.0175  62.8267 0002680  27.6067 243.1437  1.00271644 40906
TURKMENALEM52E/MONACOSAT
1 40617U 15023A   26176.39261703  .00000113  00000+0  00000+0 0  9995
2 40617   0.0190  64.6510 0003078  26.1749  16.0949  1.00275394 40935
DIRECTV 15              
1 40663U 15026A   26176.93240065 -.00000092  00000+0  00000+0 0  9994
2 40663   0.0190  62.4777 0000540 338.5679 105.7995  1.00270429 40559
SKY MEXICO-1            
1 40664U 15026B   26176.50939367  .00000000  00000+0  00000+0 0  9996
2 40664   0.0256 359.1063 0002676 115.2462 263.8772  1.00268983 40538
METEOSAT-11 (MSG-4)     
1 40732U 15034A   26177.16851279  .00000070  00000+0  00000+0 0  9996
2 40732   3.2230  71.0535 0002261 347.2688 286.0801  1.00265880  7303
STAR ONE C4             
1 40733U 15034B   26176.86757139 -.00000254  00000+0  00000+0 0  9998
2 40733   0.0267 327.6862 0002187  99.7943  88.8558  1.00271335 40106
WGS F7 (USA 263)        
1 40746U 15036A   26175.81822623  .00000000  00000+0  00000+0 0  9997
2 40746   0.0402  52.2049 0000455 132.9830 197.3076  1.00271683 39947
INTELSAT 34 (IS-34)     
1 40874U 15039A   26176.37138359 -.00000275  00000+0  00000+0 0  9995
2 40874   0.0077 354.3653 0000477  26.9885 330.3532  1.00270119 39714
EUTELSAT 8 WEST B       
1 40875U 15039B   26177.16504610 -.00000055  00000+0  00000+0 0  9997
2 40875   0.0629   5.6594 0003764  85.6586 234.3902  1.00271625 39740
GSAT-6                  
1 40880U 15041A   26177.18298618 -.00000151  00000+0  00000+0 0  9993
2 40880   1.9418  82.4836 0003135   5.6766 334.5578  1.00270791 39686
INMARSAT 5-F3           
1 40882U 15042A   26176.57014865  .00000060  00000+0  00000+0 0  9996
2 40882   0.0188  23.8627 0000490 108.1069 166.5837  1.00268087 39658
MUOS-4                  
1 40887U 15044A   26177.18151285 -.00000086  00000+0  00000+0 0  9998
2 40887   4.3466  42.3015 0057848   2.9111   9.4222  1.00272326 39658
TJS-1                   
1 40892U 15046A   26176.98345882 -.00000146  00000+0  00000+0 0  9998
2 40892   0.3462  84.9230 0005902   4.5838 333.6849  1.00270812 39650
EXPRESS-AM8             
1 40895U 15048A   26177.16383277 -.00000100  00000+0  00000+0 0  9994
2 40895   0.0160 322.3830 0000427  86.0795 270.8065  1.00271655 39438
BEIDOU-3S IGSO-2S       
1 40938U 15053A   26176.68650015 -.00000126  00000+0  00000+0 0  9999
2 40938  49.2068 258.6794 0065506 192.9195 164.0515  1.00257859 39432
SKY MUSTER 1 (NBN1A)    
1 40940U 15054A   26176.55273734  .00000000  00000+0  00000+0 0  9998
2 40940   0.0231 349.6606 0002053 100.0271 163.2387  1.00270060 39345
ARSAT 2                 
1 40941U 15054B   26177.14906012 -.00000214  00000+0  00000+0 0  9995
2 40941   0.0125 328.8643 0002180 116.0192 162.0547  1.00271740 39394
MORELOS 3               
1 40946U 15056A   26176.64513825 -.00000036  00000+0  00000+0 0  9994
2 40946   3.1937  15.2859 0000674   4.1486  13.4933  1.00271873 39372
APSTAR-9                
1 40982U 15059A   26177.25977200 -.00000254  00000+0  00000+0 0  9998
2 40982   0.0330 304.7065 0002589 232.0936 333.0921  1.00274085 39218
TURKSAT 4B              
1 40984U 15060A   26177.17648616  .00000126  00000+0  00000+0 0  9996
2 40984   0.0160  32.9304 0002475  57.6660 297.1841  1.00271991 39186
ZHONGXING-2C            
1 41021U 15063A   26177.11576914 -.00000313  00000+0  00000+0 0  9996
2 41021   0.2973  89.4229 0007551  95.7660 234.1553  1.00274674 39068
GSAT-15                 
1 41028U 15065A   26177.04252515 -.00000247  00000+0  00000+0 0  9991
2 41028   0.0502 263.8085 0004589 172.2260 306.9693  1.00271331 38883
BADR-7 (ARABSAT-6B)     
1 41029U 15065B   26177.17171947  .00000156  00000+0  00000+0 0  9993
2 41029   0.0377 213.5148 0003912 342.1535 166.4219  1.00272796 38854
